[{"OBJECT_NAME":"STARLINK-33983","OBJECT_ID":"2025-098Y","EPOCH":"2026-03-09T21:26:21.910560","MEAN_MOTION":14.98330697,"ECCENTRICITY":0.00028342,"INCLINATION":70.0001,"RA_OF_ASC_NODE":273.914,"ARG_OF_PERICENTER":265.8218,"MEAN_ANOMALY":94.2617,"EPHEMERIS_TYPE":0,"CLASSIFICATION_TYPE":"U","NORAD_CAT_ID":63948,"ELEMENT_SET_NO":999,"REV_AT_EPOCH":4658,"BSTAR":0.00012182006,"MEAN_MOTION_DOT":1.361e-5,"MEAN_MOTION_DDOT":0},{"OBJECT_NAME":"COSMOS 2251 DEB","OBJECT_ID":"1993-036BVX","EPOCH":"2026-03-07T01:08:49.279776","MEAN_MOTION":15.01172156,"ECCENTRICITY":0.00079061,"INCLINATION":73.9738,"RA_OF_ASC_NODE":312.9961,"ARG_OF_PERICENTER":93.9407,"MEAN_ANOMALY":333.6878,"EPHEMERIS_TYPE":0,"CLASSIFICATION_TYPE":"U","NORAD_CAT_ID":40794,"ELEMENT_SET_NO":999,"REV_AT_EPOCH":63186,"BSTAR":0.0025789321,"MEAN_MOTION_DOT":0.00033218,"MEAN_MOTION_DDOT":0}]
